STARLINK-33836
1 63642U 25083J   26108.37805185  .00011047  00000+0  41048-3 0  9995
2 63642  42.9991 141.3338 0001386 271.3289  88.7403 15.27570500 56137
STARLINK-33558
1 63643U 25083K   26108.40358395  .00011014  00000+0  40904-3 0  9990
2 63643  43.0018 140.6669 0001348 269.2728  90.7969 15.27589547 56143
STARLINK-33852
1 63644U 25083L   26108.57290734  .00019280  00000+0  70791-3 0  9991
2 63644  43.0007 140.2152 0001380 274.0627  86.0066 15.27598711 56197
STARLINK-33835
1 63645U 25083M   26108.56006407  .00017524  00000+0  64422-3 0  9996
2 63645  42.9994 140.1083 0001672 268.0746  91.9914 15.27610841 56198
STARLINK-33661
1 63646U 25083N   26107.82667384  .00003632  00000+0  14139-3 0  9997
2 63646  42.9992 144.0631 0000266 193.9705 166.1139 15.27585912 56080
STARLINK-33729
1 63647U 25083P   26108.38317062  .00009640  00000+0  35929-3 0  9990
2 63647  43.0002 141.3722 0000980 272.2168  87.8571 15.27589019 56130
STARLINK-33717
1 63648U 25083Q   26108.53692382  .00015261  00000+0  56281-3 0  9999
2 63648  43.0009 139.9463 0001414 273.1301  86.9389 15.27587993 56164
STARLINK-33684
1 63649U 25083R   26108.52921057  .00016408  00000+0  60417-3 0  9993
2 63649  43.0016 139.8876 0001349 267.6827  92.3870 15.27595718 56168
STARLINK-33704
1 63650U 25083S   26108.35490056  .00012893  00000+0  47711-3 0  9992
2 63650  42.9990 141.1513 0001874 260.9438  99.1202 15.27588144 56136
STARLINK-33705
1 63651U 25083T   26108.54721167  .00025399  00000+0  92861-3 0  9995
2 63651  43.0025 140.0094 0001860 272.2163  87.8476 15.27605059 56194
STARLINK-33663
1 63652U 25083U   26108.40871804  .00008969  00000+0  33497-3 0  9999
2 63652  42.9997 140.6939 0001292 266.5244  93.5459 15.27587187 56141
STARLINK-33866
1 63653U 25083V   26108.37417777  .00001882  00000+0  77905-4 0  9991
2 63653  42.9992 141.2972 0001520 273.2614  86.8063 15.27573033 56164
STARLINK-33849
1 63654U 25083W   26108.37160237  .00013657  00000+0  50468-3 0  9995
2 63654  42.9986 141.2741 0001930 279.4245  80.6388 15.27593078 56135
STARLINK-33873
1 63655U 25083X   26108.37288747  .00005895  00000+0  22354-3 0  9991
2 63655  42.9984 141.2871 0001329 277.3365  82.7336 15.27585458 56162
STARLINK-33772
1 63656U 25083Y   26108.42156740  .00014253  00000+0  52609-3 0  9999
2 63656  43.0004 140.7926 0001699 275.7610  84.3048 15.27602791 56177
STARLINK-33789
1 63657U 25083Z   26108.15231651  .00015337  00000+0  56547-3 0  9994
2 63657  43.0021 142.2129 0001572 273.6094  86.4577 15.27593325 56130
STARLINK-33822
1 63658U 25083AA  26108.43570394  .00021768  00000+0  79772-3 0  9996
2 63658  42.9987 140.8961 0001100 267.0869  92.9857 15.27600845 56175
STARLINK-33771
1 63659U 25083AB  26108.41339646  .00011146  00000+0  41361-3 0  9990
2 63659  43.0017 144.2709 0001362 267.2702  92.7993 15.27606084 56134
STARLINK-33810
1 63660U 25083AC  26108.40486632  .00010083  00000+0  37535-3 0  9996
2 63660  43.0014 140.6682 0001299 266.6172  93.4531 15.27585100 56171
STARLINK-33823
1 63661U 25083AD  26108.56261911  .00019958  00000+0  73230-3 0  9997
2 63661  42.9988 140.1328 0001784 264.9561  95.1087 15.27603759 56192
TIANLIAN 2-05
1 63662U 25084A   26108.22703168  .00000124  00000+0  00000+0 0  9993
2 63662   4.6044 280.5059 0003420 109.1969 278.7852  1.00272614  3786
STARLINK-11651 [DTC]
1 63664U 25085A   26108.16117095  .00147256  00000+0  11298-2 0  9999
2 63664  43.0004  40.1417 0001891 261.8928  98.1725 15.70862653 56466
STARLINK-11672 [DTC]
1 63665U 25085B   26108.15586658  .00164434  00000+0  12560-2 0  9994
2 63665  43.0018  40.0976 0002474 258.6333 101.4257 15.70910790 57064
STARLINK-11664 [DTC]
1 63666U 25085C   26108.58335648  .00217946  00000+0  90812-3 0  9997
2 63666  42.9978  36.8866 0008464 219.8770 292.8354 15.84259824  5883
STARLINK-11666 [DTC]
1 63667U 25085D   26108.21426154  .00216240  00000+0  16418-2 0  9996
2 63667  43.0022  40.5672 0002661 258.6660 101.3909 15.70888858 56364
STARLINK-11663 [DTC]
1 63668U 25085E   26108.52687724  .00299082  00000+0  22427-2 0  9995
2 63668  42.9990  38.6093 0000366  82.0291 278.0618 15.70931003 56518
STARLINK-11595 [DTC]
1 63669U 25085F   26108.52157677  .00302512  00000+0  22707-2 0  9999
2 63669  43.0021  38.5644 0001412  50.7298 309.3695 15.70898476 57159
STARLINK-11599 [DTC]
1 63670U 25085G   26108.51626106  .00351427  00000+0  26165-2 0  9999
2 63670  43.0010  38.5232 0001264  60.2237 299.8756 15.70944756 56508
STARLINK-11603 [DTC]
1 63671U 25085H   26108.19302711  .00281001  00000+0  21024-2 0  9996
2 63671  43.0005  40.3959 0002601 265.5645  94.4926 15.71040154 56451
STARLINK-11644 [DTC]
1 63672U 25085J   26108.50564081  .00258890  00000+0  19522-2 0  9992
2 63672  43.0005  38.4353 0001088  25.7209 334.3712 15.70921243 56509
STARLINK-11634 [DTC]
1 63673U 25085K   26108.50032513  .00415641  00000+0  30600-2 0  9992
2 63673  42.9999  38.3929 0001545 311.0599  49.0135 15.71022019 56502
STARLINK-11656 [DTC]
1 63674U 25085L   26108.49500642  .00232267  00000+0  17555-2 0  9999
2 63674  43.0004  38.3486 0003628 280.8927  79.1532 15.70944767 56509
STARLINK-11655 [DTC]
1 63675U 25085M   26108.17178921  .00178943  00000+0  13664-2 0  9993
2 63675  43.0009  40.2240 0001844 271.1911  88.8745 15.70871312 56451
STARLINK-11661 [DTC]
1 63676U 25085N   26108.16647520  .00208746  00000+0  15832-2 0  9993
2 63676  43.0008  40.1800 0002930 263.9412  96.1122 15.70936890 57101
STARLINK-33816
1 63677U 25085P   26108.48000732  .00013764  00000+0  50844-3 0  9994
2 63677  43.0013 166.3531 0001490 267.3672  92.7009 15.27600271 55057
STARLINK-33861
1 63678U 25085Q   26107.89667383  .00017787  00000+0  65418-3 0  9992
2 63678  43.0010 169.7162 0001688 276.1517  83.9143 15.27587426 54851
STARLINK-33850
1 63679U 25085R   26108.59664392  .00024627  00000+0  90056-3 0  9995
2 63679  43.0012 165.5060 0001486 274.4739  85.5943 15.27612441 54962
STARLINK-33887
1 63680U 25085S   26108.50042014  .00017292  00000+0  63604-3 0  9998
2 63680  42.9983 165.6341 0001111 264.2020  95.8705 15.27600590 55027
STARLINK-33886
1 63681U 25085T   26108.43117915  .00010518  00000+0  39105-3 0  9997
2 63681  42.9993 165.9730 0002011 265.1920  94.8702 15.27591453 54957
STARLINK-33840
1 63682U 25085U   26108.15436406  .00010900  00000+0  40495-3 0  9995
2 63682  43.0003 168.2058 0001375 271.9453  88.1241 15.27586825 54905
STARLINK-33851
1 63683U 25085V   26108.58335648  .02159825  00000+0  14413-1 0  9990
2 63683  43.0128 162.4817 0001849 269.5212 216.5576 15.71271948  5815
STARLINK-33853
1 63684U 25085W   26108.44402949  .00016545  00000+0  60882-3 0  9997
2 63684  42.9983 166.0692 0001531 291.7608  68.3080 15.27610583 54953
STARLINK-33847
1 63685U 25085X   26108.47101238  .00022287  00000+0  81631-3 0  9993
2 63685  43.0032 166.2800 0001199 275.2321  84.8394 15.27606366 54958
STARLINK-33880
1 63686U 25085Y   26108.48386808  .00016066  00000+0  59196-3 0  9992
2 63686  43.0021 166.3739 0001045 237.3432 122.7319 15.27586256 55068
HULIANWANG DIGUI-20
1 63687U 25086A   26108.56823291  .00000072  00000+0  13423-3 0  9998
2 63687  86.5068 333.2244 0002039  76.8200 283.3162 13.24412978 46986
HULIANWANG DIGUI-21
1 63688U 25086B   26108.57572761  .00000076  00000+0  14343-3 0  9999
2 63688  86.5097 333.2633 0002125  79.2617 280.8756 13.24412283 46975
HULIANWANG DIGUI-22
1 63689U 25086C   26108.58327654  .00000069  00000+0  12728-3 0  9997
2 63689  86.5062 333.1488 0002005  76.2673 283.8685 13.24413003 46976
HULIANWANG DIGUI-23
1 63690U 25086D   26108.59834061  .00000033  00000+0  41891-4 0  9990
2 63690  86.5104 333.2982 0002018  77.0971 283.0388 13.24412387 46975
HULIANWANG DIGUI-24
1 63691U 25086E   26108.60597668  .00000022  00000+0  16615-4 0  9996
2 63691  86.5110 333.3252 0002123  77.7147 282.4225 13.24412167 46972
HULIANWANG DIGUI-25
1 63692U 25086F   26108.61349032  .00000034  00000+0  44574-4 0  9996
2 63692  86.5048 333.1183 0002018  78.9141 281.2219 13.24412302 46975
HULIANWANG DIGUI-26
1 63693U 25086G   26108.59072769  .00000047  00000+0  76479-4 0  9997
2 63693  86.5098 333.2732 0002270  75.4990 284.6395 13.24412188 46970
HULIANWANG DIGUI-27
1 63694U 25086H   26108.62112997  .00000046  00000+0  74197-4 0  9994
2 63694  86.5058 333.1543 0002080  77.8785 282.2582 13.24412770 46972
HULIANWANG DIGUI-28
1 63695U 25086J   26108.63614872  .00000062  00000+0  10936-3 0  9993
2 63695  86.5022 333.0384 0002009  75.4985 284.6372 13.24412705 46974
HULIANWANG DIGUI-29
1 63696U 25086K   26108.62865528  .00000054  00000+0  91632-4 0  9993
2 63696  86.5050 333.1329 0002050  79.8170 280.3195 13.24413998 46977
STARLINK-33894
1 63697U 25087A   26108.21291710  .00020482  00000+0  70142-3 0  9995
2 63697  53.1605  35.7759 0000992 115.5058 244.6045 15.30215001 55254
STARLINK-33922
1 63698U 25087B   26108.20869659  .00018582  00000+0  63768-3 0  9992
2 63698  53.1618  35.7458 0001369  81.4345 278.6811 15.30213700 55245
STARLINK-33919
1 63699U 25087C   26108.52588491  .00026375  00000+0  89877-3 0  9998
2 63699  53.1634  34.8802 0001584 113.5702 246.5466 15.30224767 55290
STARLINK-33908
1 63700U 25087D   26108.48683979  .00017529  00000+0  60228-3 0  9993
2 63700  53.1599  34.6378 0001211  89.7806 270.3334 15.30214610 55290
STARLINK-33950
1 63701U 25087E   26108.17926180  .00013126  00000+0  45445-3 0  9997
2 63701  53.1614  36.2730 0001043 108.5223 251.5891 15.30203887 55243
STARLINK-33939
1 63702U 25087F   26108.50266981  .00017872  00000+0  61389-3 0  9998
2 63702  53.1620  34.7359 0001613  88.3352 271.7834 15.30211236 55295
STARLINK-33868
1 63703U 25087G   26108.49105647  .00027526  00000+0  93723-3 0  9992
2 63703  53.1585  34.6598 0000783  78.0064 282.1025 15.30228236 55299
STARLINK-33937
1 63704U 25087H   26108.20554838  .00014026  00000+0  48505-3 0  9991
2 63704  53.1624  35.7229 0001651 116.1588 243.9583 15.30183090 55255
STARLINK-33848
1 63705U 25087J   26108.21714031  .00019609  00000+0  67190-3 0  9999
2 63705  53.1595  35.7981 0001004  93.4236 266.6880 15.30225479 55246
